{
  "type": "FeatureCollection",
  "features": [
    {
      "type": "Feature",
      "properties": {
        "norad_id": 34459,
        "name": "COSMOS 2251 DEB",
        "group": "cosmos-2251-debris",
        "lat": -13.544167739650913,
        "lon": -105.51571797817327,
        "alt_km": 762.6536663261022,
        "timestamp": "2025-12-10T04:57:30.016286+00:00",
        "meta_object_name": "COSMOS 2251 DEB",
        "meta_object_id": "1993-036TC",
        "meta_epoch": "2025-12-09T18:44:13.803648",
        "meta_mean_motion": 14.0049223,
        "meta_eccentricity": 0.0192037,
        "meta_inclination": 74.0793,
        "meta_ra_of_asc_node": 259.1627,
        "meta_arg_of_pericenter": 329.6124,
        "meta_mean_anomaly": 29.3986,
        "meta_ephemeris_type": 0,
        "meta_classification_type": "U",
        "meta_norad_cat_id": 34459,
        "meta_element_set_no": 999,
        "meta_rev_at_epoch": 85670,
        "meta_bstar": 0.00087515,
        "meta_mean_motion_dot": 1.499e-05,
        "meta_mean_motion_ddot": 0,
        "tle_line1": "1 34459U 93036TC  25343.78071532  .00001499  00000+0  87515-3 0  9997",
        "tle_line2": "2 34459  74.0793 259.1627 0192037 329.6124  29.3986 14.00492230856706"
      },
      "geometry": {
        "type": "Point",
        "coordinates": [
          -105.51571797817327,
          -13.544167739650913
        ]
      }
    },
    {
      "type": "Feature",
      "properties": {
        "norad_id": 34464,
        "name": "COSMOS 2251 DEB",
        "group": "cosmos-2251-debris",
        "lat": 51.46223372396849,
        "lon": 104.78400374155356,
        "alt_km": 491.6730001167416,
        "timestamp": "2025-12-10T04:57:30.016296+00:00",
        "meta_object_name": "COSMOS 2251 DEB",
        "meta_object_id": "1993-036TH",
        "meta_epoch": "2025-12-09T08:16:13.821024",
        "meta_mean_motion": 15.26277905,
        "meta_eccentricity": 0.00167133,
        "meta_inclination": 73.9907,
        "meta_ra_of_asc_node": 85.4834,
        "meta_arg_of_pericenter": 262.1565,
        "meta_mean_anomaly": 97.7738,
        "meta_ephemeris_type": 0,
        "meta_classification_type": "U",
        "meta_norad_cat_id": 34464,
        "meta_element_set_no": 999,
        "meta_rev_at_epoch": 89788,
        "meta_bstar": 0.003892726,
        "meta_mean_motion_dot": 0.00102738,
        "meta_mean_motion_ddot": 0,
        "tle_line1": "1 34464U 93036TH  25343.34460441  .00102738  00000+0  38927-2 0  9996",
        "tle_line2": "2 34464  73.9907  85.4834 0016713 262.1565  97.7738 15.26277905897880"
      },
      "geometry": {
        "type": "Point",
        "coordinates": [
          104.78400374155356,
          51.46223372396849
        ]
      }
    },
    {
      "type": "Feature",
      "properties": {
        "norad_id": 34468,
        "name": "COSMOS 2251 DEB",
        "group": "cosmos-2251-debris",
        "lat": -71.22969768627937,
        "lon": 64.43023629541723,
        "alt_km": 687.3697547423644,
        "timestamp": "2025-12-10T04:57:30.016306+00:00",
        "meta_object_name": "COSMOS 2251 DEB",
        "meta_object_id": "1993-036TM",
        "meta_epoch": "2025-12-09T19:22:22.703808",
        "meta_mean_motion": 14.47613075,
        "meta_eccentricity": 0.007635,
        "meta_inclination": 74.0129,
        "meta_ra_of_asc_node": 122.6979,
        "meta_arg_of_pericenter": 268.2218,
        "meta_mean_anomaly": 91.0195,
        "meta_ephemeris_type": 0,
        "meta_classification_type": "U",
        "meta_norad_cat_id": 34468,
        "meta_element_set_no": 999,
        "meta_rev_at_epoch": 88419,
        "meta_bstar": 0.00062688,
        "meta_mean_motion_dot": 2.366e-05,
        "meta_mean_motion_ddot": 0,
        "tle_line1": "1 34468U 93036TM  25343.80720722  .00002366  00000+0  62688-3 0  9990",
        "tle_line2": "2 34468  74.0129 122.6979 0076350 268.2218  91.0195 14.47613075884199"
      },
      "geometry": {
        "type": "Point",
        "coordinates": [
          64.43023629541723,
          -71.22969768627937
        ]
      }
    },
    {
      "type": "Feature",
      "properties": {
        "norad_id": 34472,
        "name": "COSMOS 2251 DEB",
        "group": "cosmos-2251-debris",
        "lat": -63.8242051814963,
        "lon": 66.82359934758274,
        "alt_km": 868.7193775776423,
        "timestamp": "2025-12-10T04:57:30.016316+00:00",
        "meta_object_name": "COSMOS 2251 DEB",
        "meta_object_id": "1993-036TR",
        "meta_epoch": "2025-12-08T18:15:08.826912",
        "meta_mean_motion": 13.70322213,
        "meta_eccentricity": 0.03280903,
        "meta_inclination": 74.0833,
        "meta_ra_of_asc_node": 104.6881,
        "meta_arg_of_pericenter": 236.5736,
        "meta_mean_anomaly": 120.3611,
        "meta_ephemeris_type": 0,
        "meta_classification_type": "U",
        "meta_norad_cat_id": 34472,
        "meta_element_set_no": 999,
        "meta_rev_at_epoch": 83672,
        "meta_bstar": 0.0014639166,
        "meta_mean_motion_dot": 1.867e-05,
        "meta_mean_motion_ddot": 0,
        "tle_line1": "1 34472U 93036TR  25342.76051883  .00001867  00000+0  14639-2 0  9991",
        "tle_line2": "2 34472  74.0833 104.6881 0328090 236.5736 120.3611 13.70322213836723"
      },
      "geometry": {
        "type": "Point",
        "coordinates": [
          66.82359934758274,
          -63.8242051814963
        ]
      }
    },
    {
      "type": "Feature",
      "properties": {
        "norad_id": 34474,
        "name": "COSMOS 2251 DEB",
        "group": "cosmos-2251-debris",
        "lat": 73.31401039320316,
        "lon": 78.37227413644432,
        "alt_km": 770.1913687047763,
        "timestamp": "2025-12-10T04:57:30.016327+00:00",
        "meta_object_name": "COSMOS 2251 DEB",
        "meta_object_id": "1993-036TT",
        "meta_epoch": "2025-12-09T10:18:34.765920",
        "meta_mean_motion": 14.06378641,
        "meta_eccentricity": 0.01980997,
        "meta_inclination": 74.0784,
        "meta_ra_of_asc_node": 331.9568,
        "meta_arg_of_pericenter": 46.6826,
        "meta_mean_anomaly": 74.084,
        "meta_ephemeris_type": 0,
        "meta_classification_type": "U",
        "meta_norad_cat_id": 34474,
        "meta_element_set_no": 999,
        "meta_rev_at_epoch": 85462,
        "meta_bstar": 0.0026434652,
        "meta_mean_motion_dot": 5.192e-05,
        "meta_mean_motion_ddot": 0,
        "tle_line1": "1 34474U 93036TT  25343.42956905  .00005192  00000+0  26435-2 0  9998",
        "tle_line2": "2 34474  74.0784 331.9568 0198099  46.6826  74.0840 14.06378641854625"
      },
      "geometry": {
        "type": "Point",
        "coordinates": [
          78.37227413644432,
          73.31401039320316
        ]
      }
    },
    {
      "type": "Feature",
      "properties": {
        "norad_id": 34476,
        "name": "COSMOS 2251 DEB",
        "group": "cosmos-2251-debris",
        "lat": -67.6177617891609,
        "lon": 42.626219803921515,
        "alt_km": 743.749862039861,
        "timestamp": "2025-12-10T04:57:30.016337+00:00",
        "meta_object_name": "COSMOS 2251 DEB",
        "meta_object_id": "1993-036TV",
        "meta_epoch": "2025-12-09T17:08:07.643040",
        "meta_mean_motion": 13.8198057,
        "meta_eccentricity": 0.0319873,
        "meta_inclination": 74.0051,
        "meta_ra_of_asc_node": 87.6033,
        "meta_arg_of_pericenter": 307.8272,
        "meta_mean_anomaly": 49.4288,
        "meta_ephemeris_type": 0,
        "meta_classification_type": "U",
        "meta_norad_cat_id": 34476,
        "meta_element_set_no": 999,
        "meta_rev_at_epoch": 83596,
        "meta_bstar": 0.0047303,
        "meta_mean_motion_dot": 7.488e-05,
        "meta_mean_motion_ddot": 0,
        "tle_line1": "1 34476U 93036TV  25343.71397735  .00007488  00000+0  47303-2 0  9999",
        "tle_line2": "2 34476  74.0051  87.6033 0319873 307.8272  49.4288 13.81980570835968"
      },
      "geometry": {
        "type": "Point",
        "coordinates": [
          42.626219803921515,
          -67.6177617891609
        ]
      }
    },
    {
      "type": "Feature",
      "properties": {
        "norad_id": 34477,
        "name": "COSMOS 2251 DEB",
        "group": "cosmos-2251-debris",
        "lat": -37.349282590803156,
        "lon": -93.0046534779126,
        "alt_km": 669.3447743208189,
        "timestamp": "2025-12-10T04:57:30.016347+00:00",
        "meta_object_name": "COSMOS 2251 DEB",
        "meta_object_id": "1993-036TW",
        "meta_epoch": "2025-12-09T17:07:03.750240",
        "meta_mean_motion": 14.56828153,
        "meta_eccentricity": 0.0076879,
        "meta_inclination": 73.979,
        "meta_ra_of_asc_node": 75.2683,
        "meta_arg_of_pericenter": 262.9666,
        "meta_mean_anomaly": 250.2604,
        "meta_ephemeris_type": 0,
        "meta_classification_type": "U",
        "meta_norad_cat_id": 34477,
        "meta_element_set_no": 999,
        "meta_rev_at_epoch": 88581,
        "meta_bstar": 0.0013891,
        "meta_mean_motion_dot": 6.453e-05,
        "meta_mean_motion_ddot": 0,
        "tle_line1": "1 34477U 93036TW  25343.71323785  .00006453  00000+0  13891-2 0  9990",
        "tle_line2": "2 34477  73.9790  75.2683 0076879 262.9666 250.2604 14.56828153885819"
      },
      "geometry": {
        "type": "Point",
        "coordinates": [
          -93.0046534779126,
          -37.349282590803156
        ]
      }
    }
  ]
}